[{"OBJECT_NAME":"YUNHAI-2 02D","OBJECT_ID":"2024-052D","EPOCH":"2026-03-10T00:10:43.097664","MEAN_MOTION":14.27955868,"ECCENTRICITY":0.00044025,"INCLINATION":50.0099,"RA_OF_ASC_NODE":322.6736,"ARG_OF_PERICENTER":235.7581,"MEAN_ANOMALY":124.2918,"EPHEMERIS_TYPE":0,"CLASSIFICATION_TYPE":"U","NORAD_CAT_ID":59283,"ELEMENT_SET_NO":999,"REV_AT_EPOCH":10422,"BSTAR":0.00012605857,"MEAN_MOTION_DOT":1.53e-6,"MEAN_MOTION_DDOT":0},{"OBJECT_NAME":"FENGYUN 1C DEB","OBJECT_ID":"1999-025BVB","EPOCH":"2026-03-09T05:21:26.983008","MEAN_MOTION":14.37296725,"ECCENTRICITY":0.0212574,"INCLINATION":99.0908,"RA_OF_ASC_NODE":59.7824,"ARG_OF_PERICENTER":145.7863,"MEAN_ANOMALY":215.7231,"EPHEMERIS_TYPE":0,"CLASSIFICATION_TYPE":"U","NORAD_CAT_ID":31463,"ELEMENT_SET_NO":999,"REV_AT_EPOCH":65962,"BSTAR":0.00029358638,"MEAN_MOTION_DOT":1.08e-5,"MEAN_MOTION_DDOT":0}]
